ONEWEB-0199             
1 48234U 21031AA  24355.55211513 -.00000108  00000+0 -32547-3 0  9994
2 48234  87.9002  37.7954 0001734  93.2360 266.8968 13.14501838176847
ONEWEB-0203             
1 48235U 21031AB  24355.54258799  .00000993  00000+0  26440-2 0  9995
2 48235  87.9000  37.7993 0001377  91.4730 268.6558 13.14514546176859
ONEWEB-0197             
1 48236U 21031AC  24355.59413871  .00000048  00000+0  95313-4 0  9993
2 48236  87.9002  37.7996 0002103  93.5439 266.5931 13.14503260176776
ONEWEB-0194             
1 48237U 21031AD  24355.19214952  .00000318  00000+0  82398-3 0  9997
2 48237  87.9003  37.8741 0001603  90.7998 269.3315 13.14503620176890
ONEWEB-0193             
1 48238U 21031AE  24355.58858521  .00000127  00000+0  30828-3 0  9996
2 48238  87.9004  37.8032 0001673  99.9945 260.1374 13.14501264176891
ONEWEB-0191             
1 48239U 21031AF  24355.37132602  .00000018  00000+0  14760-4 0  9996
2 48239  87.9000  37.8241 0001700 100.8783 259.2538 13.14504553176720
ONEWEB-0195             
1 48240U 21031AG  24355.57668795  .00000240  00000+0  61303-3 0  9998
2 48240  87.9000  37.7820 0001742 112.8156 247.3158 13.14502314176737
ONEWEB-0201             
1 48241U 21031AH  24355.56560099  .00000183  00000+0  45886-3 0  9990
2 48241  87.9003  37.8249 0001844 103.9937 256.1398 13.14502672176964
